[{"OBJECT_NAME":"STARLINK-2097","OBJECT_ID":"2021-005AE","EPOCH":"2026-03-09T05:49:42.104352","MEAN_MOTION":15.06382302,"ECCENTRICITY":0.00017017,"INCLINATION":53.0556,"RA_OF_ASC_NODE":63.6258,"ARG_OF_PERICENTER":79.4029,"MEAN_ANOMALY":280.7151,"EPHEMERIS_TYPE":0,"CLASSIFICATION_TYPE":"U","NORAD_CAT_ID":47377,"ELEMENT_SET_NO":999,"REV_AT_EPOCH":28297,"BSTAR":-0.00011661326,"MEAN_MOTION_DOT":-2.017e-5,"MEAN_MOTION_DDOT":0},{"OBJECT_NAME":"FENGYUN 1C DEB","OBJECT_ID":"1999-025EB","EPOCH":"2026-03-09T21:27:48.971520","MEAN_MOTION":14.9364801,"ECCENTRICITY":0.00856057,"INCLINATION":99.085,"RA_OF_ASC_NODE":69.4314,"ARG_OF_PERICENTER":339.4426,"MEAN_ANOMALY":20.3352,"EPHEMERIS_TYPE":0,"CLASSIFICATION_TYPE":"U","NORAD_CAT_ID":29833,"ELEMENT_SET_NO":999,"REV_AT_EPOCH":1871,"BSTAR":0.0015409165,"MEAN_MOTION_DOT":0.00017454,"MEAN_MOTION_DDOT":0}]
